HAMSAT (VO-52)          
1 28650U 05017B   26068.94038205  .00007080  00000+0  45283-3 0  9996
2 28650  97.9995  87.8294 0020012  17.3795 342.8113 15.08773202131794
LEMUR-2-MARHISYAM       
1 60536U 24149BW  26068.74036894  .00013075  00000+0  82973-3 0  9990
2 60536  97.6912 151.2662 0003577 107.3271 252.8349 15.09015520 85477
